[{"OBJECT_NAME":"ONEWEB-0335","OBJECT_ID":"2021-083R","EPOCH":"2025-10-09T06:46:27.471360","MEAN_MOTION":13.13469959,"ECCENTRICITY":0.00018191,"INCLINATION":87.9034,"RA_OF_ASC_NODE":10.1061,"ARG_OF_PERICENTER":94.4373,"MEAN_ANOMALY":265.6964,"EPHEMERIS_TYPE":0,"CLASSIFICATION_TYPE":"U","NORAD_CAT_ID":49201,"ELEMENT_SET_NO":999,"REV_AT_EPOCH":19798,"BSTAR":-0.00052646522,"MEAN_MOTION_DOT":-1.8e-6,"MEAN_MOTION_DDOT":0},{"OBJECT_NAME":"ONEWEB-0336","OBJECT_ID":"2021-083S","EPOCH":"2025-10-09T06:05:01.273344","MEAN_MOTION":13.13468012,"ECCENTRICITY":0.00020396,"INCLINATION":87.9045,"RA_OF_ASC_NODE":10.1066,"ARG_OF_PERICENTER":89.5181,"MEAN_ANOMALY":270.6181,"EPHEMERIS_TYPE":0,"CLASSIFICATION_TYPE":"U","NORAD_CAT_ID":49202,"ELEMENT_SET_NO":999,"REV_AT_EPOCH":19797,"BSTAR":0.00049895533,"MEAN_MOTION_DOT":1.95e-6,"MEAN_MOTION_DDOT":0},{"OBJECT_NAME":"ONEWEB-0337","OBJECT_ID":"2021-083T","EPOCH":"2025-10-09T06:19:27.163776","MEAN_MOTION":13.13469578,"ECCENTRICITY":0.00020186,"INCLINATION":87.9055,"RA_OF_ASC_NODE":10.1114,"ARG_OF_PERICENTER":97.9972,"MEAN_ANOMALY":262.1386,"EPHEMERIS_TYPE":0,"CLASSIFICATION_TYPE":"U","NORAD_CAT_ID":49203,"ELEMENT_SET_NO":999,"REV_AT_EPOCH":19797,"BSTAR":-0.00015524106,"MEAN_MOTION_DOT":-4.4e-7,"MEAN_MOTION_DDOT":0},{"OBJECT_NAME":"ONEWEB-0338","OBJECT_ID":"2021-083U","EPOCH":"2025-10-09T03:14:28.206816","MEAN_MOTION":13.20771211,"ECCENTRICITY":0.00019425,"INCLINATION":87.9229,"RA_OF_ASC_NODE":324.5303,"ARG_OF_PERICENTER":105.572,"MEAN_ANOMALY":254.5628,"EPHEMERIS_TYPE":0,"CLASSIFICATION_TYPE":"U","NORAD_CAT_ID":49204,"ELEMENT_SET_NO":999,"REV_AT_EPOCH":20367,"BSTAR":0.00032169964,"MEAN_MOTION_DOT":1.44e-6,"MEAN_MOTION_DDOT":0},{"OBJECT_NAME":"ONEWEB-0339","OBJECT_ID":"2021-083V","EPOCH":"2025-10-09T06:31:50.029248","MEAN_MOTION":13.13470204,"ECCENTRICITY":0.00018962,"INCLINATION":87.9044,"RA_OF_ASC_NODE":10.0925,"ARG_OF_PERICENTER":104.8864,"MEAN_ANOMALY":255.2475,"EPHEMERIS_TYPE":0,"CLASSIFICATION_TYPE":"U","NORAD_CAT_ID":49205,"ELEMENT_SET_NO":999,"REV_AT_EPOCH":19795,"BSTAR":-0.00099810439,"MEAN_MOTION_DOT":-3.52e-6,"MEAN_MOTION_DDOT":0},{"OBJECT_NAME":"ONEWEB-0340","OBJECT_ID":"2021-083W","EPOCH":"2025-10-09T06:52:26.872032","MEAN_MOTION":13.18687131,"ECCENTRICITY":0.00018072,"INCLINATION":87.923,"RA_OF_ASC_NODE":25.2742,"ARG_OF_PERICENTER":98.017,"MEAN_ANOMALY":262.1167,"EPHEMERIS_TYPE":0,"CLASSIFICATION_TYPE":"U","NORAD_CAT_ID":49206,"ELEMENT_SET_NO":999,"REV_AT_EPOCH":19690,"BSTAR":0.00030387212,"MEAN_MOTION_DOT":1.33e-6,"MEAN_MOTION_DDOT":0},{"OBJECT_NAME":"ONEWEB-0341","OBJECT_ID":"2021-083X","EPOCH":"2025-10-09T05:12:40.870944","MEAN_MOTION":13.18687577,"ECCENTRICITY":0.00023461,"INCLINATION":87.923,"RA_OF_ASC_NODE":25.301,"ARG_OF_PERICENTER":100.5739,"MEAN_ANOMALY":259.5657,"EPHEMERIS_TYPE":0,"CLASSIFICATION_TYPE":"U","NORAD_CAT_ID":49207,"ELEMENT_SET_NO":999,"REV_AT_EPOCH":19691,"BSTAR":0.0001442698,"MEAN_MOTION_DOT":7.0e-7,"MEAN_MOTION_DDOT":0},{"OBJECT_NAME":"ONEWEB-0342","OBJECT_ID":"2021-083Y","EPOCH":"2025-10-09T03:23:31.547040","MEAN_MOTION":13.20771314,"ECCENTRICITY":0.00018705,"INCLINATION":87.9227,"RA_OF_ASC_NODE":324.4976,"ARG_OF_PERICENTER":100.4286,"MEAN_ANOMALY":259.7058,"EPHEMERIS_TYPE":0,"CLASSIFICATION_TYPE":"U","NORAD_CAT_ID":49208,"ELEMENT_SET_NO":999,"REV_AT_EPOCH":20364,"BSTAR":-0.00035028299,"MEAN_MOTION_DOT":-1.29e-6,"MEAN_MOTION_DDOT":0},{"OBJECT_NAME":"ONEWEB-0343","OBJECT_ID":"2021-083Z","EPOCH":"2025-10-09T07:03:40.569120","MEAN_MOTION":13.17111567,"ECCENTRICITY":0.00022956,"INCLINATION":87.9231,"RA_OF_ASC_NODE":25.2732,"ARG_OF_PERICENTER":109.8108,"MEAN_ANOMALY":250.3271,"EPHEMERIS_TYPE":0,"CLASSIFICATION_TYPE":"U","NORAD_CAT_ID":49209,"ELEMENT_SET_NO":999,"REV_AT_EPOCH":19697,"BSTAR":0.00035750348,"MEAN_MOTION_DOT":1.51e-6,"MEAN_MOTION_DDOT":0},{"OBJECT_NAME":"ONEWEB-0344","OBJECT_ID":"2021-083AA","EPOCH":"2025-10-09T06:24:30.945312","MEAN_MOTION":13.13469769,"ECCENTRICITY":0.0002207,"INCLINATION":87.9041,"RA_OF_ASC_NODE":10.1308,"ARG_OF_PERICENTER":99.2578,"MEAN_ANOMALY":260.8801,"EPHEMERIS_TYPE":0,"CLASSIFICATION_TYPE":"U","NORAD_CAT_ID":49210,"ELEMENT_SET_NO":999,"REV_AT_EPOCH":19795,"BSTAR":-0.00062900547,"MEAN_MOTION_DOT":-2.17e-6,"MEAN_MOTION_DDOT":0},{"OBJECT_NAME":"ONEWEB-0345","OBJECT_ID":"2021-083AB","EPOCH":"2025-10-09T06:12:20.636352","MEAN_MOTION":13.13469917,"ECCENTRICITY":0.00022268,"INCLINATION":87.905,"RA_OF_ASC_NODE":10.0876,"ARG_OF_PERICENTER":101.4316,"MEAN_ANOMALY":258.7064,"EPHEMERIS_TYPE":0,"CLASSIFICATION_TYPE":"U","NORAD_CAT_ID":49211,"ELEMENT_SET_NO":999,"REV_AT_EPOCH":19796,"BSTAR":0.0001022547,"MEAN_MOTION_DOT":5.0e-7,"MEAN_MOTION_DDOT":0},{"OBJECT_NAME":"ONEWEB-0346","OBJECT_ID":"2021-083AC","EPOCH":"2025-10-09T05:19:47.305920","MEAN_MOTION":13.18684407,"ECCENTRICITY":0.00017177,"INCLINATION":87.9226,"RA_OF_ASC_NODE":25.3075,"ARG_OF_PERICENTER":79.77,"MEAN_ANOMALY":280.3625,"EPHEMERIS_TYPE":0,"CLASSIFICATION_TYPE":"U","NORAD_CAT_ID":49212,"ELEMENT_SET_NO":999,"REV_AT_EPOCH":19690,"BSTAR":0.00020429441,"MEAN_MOTION_DOT":9.3e-7,"MEAN_MOTION_DDOT":0},{"OBJECT_NAME":"ONEWEB-0348","OBJECT_ID":"2021-083AD","EPOCH":"2025-10-09T04:58:59.092032","MEAN_MOTION":13.20768746,"ECCENTRICITY":0.00023356,"INCLINATION":87.9226,"RA_OF_ASC_NODE":324.4958,"ARG_OF_PERICENTER":84.6909,"MEAN_ANOMALY":275.4491,"EPHEMERIS_TYPE":0,"CLASSIFICATION_TYPE":"U","NORAD_CAT_ID":49213,"ELEMENT_SET_NO":999,"REV_AT_EPOCH":20368,"BSTAR":-0.00016191326,"MEAN_MOTION_DOT":-5.3e-7,"MEAN_MOTION_DDOT":0},{"OBJECT_NAME":"ONEWEB-0350","OBJECT_ID":"2021-083AE","EPOCH":"2025-10-09T06:25:44.269536","MEAN_MOTION":13.13471026,"ECCENTRICITY":0.00021173,"INCLINATION":87.9056,"RA_OF_ASC_NODE":10.0804,"ARG_OF_PERICENTER":98.1764,"MEAN_ANOMALY":261.9605,"EPHEMERIS_TYPE":0,"CLASSIFICATION_TYPE":"U","NORAD_CAT_ID":49214,"ELEMENT_SET_NO":999,"REV_AT_EPOCH":19799,"BSTAR":-0.00071806892,"MEAN_MOTION_DOT":-2.49e-6,"MEAN_MOTION_DDOT":0},{"OBJECT_NAME":"ONEWEB-0351","OBJECT_ID":"2021-083AF","EPOCH":"2025-10-09T04:49:43.379328","MEAN_MOTION":13.2077157,"ECCENTRICITY":0.00022841,"INCLINATION":87.9232,"RA_OF_ASC_NODE":324.487,"ARG_OF_PERICENTER":119.5015,"MEAN_ANOMALY":240.6346,"EPHEMERIS_TYPE":0,"CLASSIFICATION_TYPE":"U","NORAD_CAT_ID":49215,"ELEMENT_SET_NO":999,"REV_AT_EPOCH":20364,"BSTAR":-3.377761e-6,"MEAN_MOTION_DOT":1.2e-7,"MEAN_MOTION_DDOT":0},{"OBJECT_NAME":"ONEWEB-0352","OBJECT_ID":"2021-083AG","EPOCH":"2025-10-09T05:57:42.608448","MEAN_MOTION":13.13470628,"ECCENTRICITY":0.00019183,"INCLINATION":87.9039,"RA_OF_ASC_NODE":10.1156,"ARG_OF_PERICENTER":114.9226,"MEAN_ANOMALY":245.2103,"EPHEMERIS_TYPE":0,"CLASSIFICATION_TYPE":"U","NORAD_CAT_ID":49216,"ELEMENT_SET_NO":999,"REV_AT_EPOCH":19808,"BSTAR":0.00071851681,"MEAN_MOTION_DOT":2.75e-6,"MEAN_MOTION_DDOT":0},{"OBJECT_NAME":"ONEWEB-0354","OBJECT_ID":"2021-083AH","EPOCH":"2025-10-09T03:37:11.172000","MEAN_MOTION":13.20772629,"ECCENTRICITY":0.00021622,"INCLINATION":87.9234,"RA_OF_ASC_NODE":324.4954,"ARG_OF_PERICENTER":92.24,"MEAN_ANOMALY":267.8981,"EPHEMERIS_TYPE":0,"CLASSIFICATION_TYPE":"U","NORAD_CAT_ID":49217,"ELEMENT_SET_NO":999,"REV_AT_EPOCH":20367,"BSTAR":0.00017916188,"MEAN_MOTION_DOT":8.6e-7,"MEAN_MOTION_DDOT":0},{"OBJECT_NAME":"ONEWEB-0355","OBJECT_ID":"2021-083AJ","EPOCH":"2025-10-09T06:39:21.045888","MEAN_MOTION":13.13471663,"ECCENTRICITY":0.00019828,"INCLINATION":87.9048,"RA_OF_ASC_NODE":10.1191,"ARG_OF_PERICENTER":104.7001,"MEAN_ANOMALY":255.4348,"EPHEMERIS_TYPE":0,"CLASSIFICATION_TYPE":"U","NORAD_CAT_ID":49218,"ELEMENT_SET_NO":999,"REV_AT_EPOCH":19796,"BSTAR":-0.00069146704,"MEAN_MOTION_DOT":-2.4e-6,"MEAN_MOTION_DDOT":0},{"OBJECT_NAME":"ONEWEB-0357","OBJECT_ID":"2021-083AK","EPOCH":"2025-10-09T03:32:38.339808","MEAN_MOTION":13.20772948,"ECCENTRICITY":0.00019774,"INCLINATION":87.9229,"RA_OF_ASC_NODE":324.4944,"ARG_OF_PERICENTER":99.552,"MEAN_ANOMALY":260.5836,"EPHEMERIS_TYPE":0,"CLASSIFICATION_TYPE":"U","NORAD_CAT_ID":49219,"ELEMENT_SET_NO":999,"REV_AT_EPOCH":20367,"BSTAR":0.00019616321,"MEAN_MOTION_DOT":9.3e-7,"MEAN_MOTION_DDOT":0},{"OBJECT_NAME":"ONEWEB-0332","OBJECT_ID":"2021-090A","EPOCH":"2025-10-09T04:22:19.923456","MEAN_MOTION":13.14501787,"ECCENTRICITY":0.00017018,"INCLINATION":87.9052,"RA_OF_ASC_NODE":339.7175,"ARG_OF_PERICENTER":105.4241,"MEAN_ANOMALY":254.7077,"EPHEMERIS_TYPE":0,"CLASSIFICATION_TYPE":"U","NORAD_CAT_ID":49279,"ELEMENT_SET_NO":999,"REV_AT_EPOCH":19460,"BSTAR":-0.00027275652,"MEAN_MOTION_DOT":-8.8e-7,"MEAN_MOTION_DDOT":0},{"OBJECT_NAME":"ONEWEB-0347","OBJECT_ID":"2021-090B","EPOCH":"2025-10-09T03:18:58.781376","MEAN_MOTION":13.20773304,"ECCENTRICITY":0.00016056,"INCLINATION":87.9227,"RA_OF_ASC_NODE":324.5096,"ARG_OF_PERICENTER":99.1251,"MEAN_ANOMALY":261.0064,"EPHEMERIS_TYPE":0,"CLASSIFICATION_TYPE":"U","NORAD_CAT_ID":49280,"ELEMENT_SET_NO":999,"REV_AT_EPOCH":19790,"BSTAR":0.0003180417,"MEAN_MOTION_DOT":1.42e-6,"MEAN_MOTION_DDOT":0},{"OBJECT_NAME":"ONEWEB-0349","OBJECT_ID":"2021-090C","EPOCH":"2025-10-09T04:04:26.492448","MEAN_MOTION":13.20773674,"ECCENTRICITY":0.00019696,"INCLINATION":87.9222,"RA_OF_ASC_NODE":324.5033,"ARG_OF_PERICENTER":99.4106,"MEAN_ANOMALY":260.725,"EPHEMERIS_TYPE":0,"CLASSIFICATION_TYPE":"U","NORAD_CAT_ID":49281,"ELEMENT_SET_NO":999,"REV_AT_EPOCH":19669,"BSTAR":0.00015411349,"MEAN_MOTION_DOT":7.6e-7,"MEAN_MOTION_DDOT":0},{"OBJECT_NAME":"ONEWEB-0353","OBJECT_ID":"2021-090D","EPOCH":"2025-10-09T04:10:55.132608","MEAN_MOTION":13.14502479,"ECCENTRICITY":0.00016656,"INCLINATION":87.9051,"RA_OF_ASC_NODE":339.7015,"ARG_OF_PERICENTER":103.9202,"MEAN_ANOMALY":256.2113,"EPHEMERIS_TYPE":0,"CLASSIFICATION_TYPE":"U","NORAD_CAT_ID":49282,"ELEMENT_SET_NO":999,"REV_AT_EPOCH":19460,"BSTAR":5.4481682e-5,"MEAN_MOTION_DOT":3.3e-7,"MEAN_MOTION_DDOT":0}]
